ONEWEB-0167             
1 48064U 21025Y   23120.62383104  .00000216  00000+0  55703-3 0  9998
2 48064  87.9096 187.5614 0001975  92.0606 268.0749 13.13473172103451
ONEWEB-0166             
1 48065U 21025Z   23120.56986019  .00000109  00000+0  26375-3 0  9990
2 48065  87.9092 187.5715 0001866 100.6658 259.4682 13.13469056103526
ONEWEB-0151             
1 48066U 21025AA  23120.57196752  .00000168  00000+0  42511-3 0  9994
2 48066  87.9095 187.5748 0002397  99.2821 260.8579 13.13467088103468
ONEWEB-0170             
1 48067U 21025AB  23120.57832829 -.00000046  00000+0 -16163-3 0  9998
2 48067  87.9096 187.5717 0002920 105.1184 255.0268 13.13468164103420
ONEWEB-0168             
1 48068U 21025AC  23120.56350811  .00000376  00000+0  99558-3 0  9997
2 48068  87.9097 187.6136 0001964 101.6438 258.4912 13.13471451103435
ONEWEB-0173             
1 48069U 21025AD  23120.70951460  .00000336  00000+0  88646-3 0  9993
2 48069  87.9099 187.5978 0002355  86.4773 273.6625 13.13467890103698
ONEWEB-0171             
1 48070U 21025AE  23120.59099914 -.00000283  00000+0 -81125-3 0  9997
2 48070  87.9101 187.5812 0002440  94.7252 265.4156 13.13467745103495
ONEWEB-0172             
1 48071U 21025AF  23120.57303324  .00000081  00000+0  18664-3 0  9991
2 48071  87.9091 187.5657 0002424  92.8604 267.2802 13.13468847104384
ONEWEB-0174             
1 48072U 21025AG  23120.70740557  .00000281  00000+0  73406-3 0  9997
2 48072  87.9087 187.5561 0001587 105.1918 254.9386 13.13473798103727
ONEWEB-0175             
1 48073U 21025AH  23120.58255264 -.00000127  00000+0 -38232-3 0  9999
2 48073  87.9092 187.5682 0002683  98.9944 261.1489 13.13468489103369
ONEWEB-0177             
1 48074U 21025AJ  23120.74759582 -.00000237  00000+0 -68331-3 0  9995
2 48074  87.9092 187.5371 0001995  81.1545 278.9810 13.13471241103578
ONEWEB-0178             
1 48075U 21025AK  23120.61323970 -.00000071  00000+0 -23040-3 0  9994
2 48075  87.9096 187.5695 0001995  94.2264 265.9093 13.13472952103608
ONEWEB-0108             
1 48076U 21025AL  23120.57408403  .00000068  00000+0  15103-3 0  9990
2 48076  87.9092 187.5719 0002074 106.7991 253.3365 13.13468748103529
ONEWEB-0169             
1 48077U 21025AM  23120.14663492 -.00000252  00000+0 -72544-3 0  9994
2 48077  87.9095 187.6536 0001833 111.1446 248.9879 13.13471281102129
GAOFEN 12-02            
1 48079U 21026A   23120.91828024  .00000879  00000+0  12129-3 0  9992
2 48079  97.9213 111.9080 0001450  78.4565 281.6805 14.80604929112597
FEES                    
1 48082U 21022AL  23120.65213534  .00030974  00000+0  12680-2 0  9997
2 48082  97.5030  22.6506 0013902 112.9956 247.2750 15.24166499114614
BEESAT-5                
1 48083U 21022AM  23120.15010844  .00020889  00000+0  10048-2 0  9992
2 48083  97.4925  19.5802 0018435 131.6563 228.6253 15.18664988114798
BEESAT-7                
1 48084U 21022AN  23120.48095934  .00018650  00000+0  91861-3 0  9998
2 48084  97.4978  19.8540 0018671 131.3193 228.9651 15.17859240114428
BEESAT-8                
1 48085U 21022AP  23120.18594176  .00011992  00000+0  63881-3 0  9991
2 48085  97.5037  19.2325 0019373 133.9405 226.3430 15.15194087114915
STARLINK-2048           
1 48092U 21027A   23120.35398376  .00004639  00000+0  33005-3 0  9992
2 48092  53.0537 105.1024 0001198  81.9465 278.1660 15.06403893116055
STARLINK-2404           
1 48093U 21027B   23120.44935910  .00003921  00000+0  28194-3 0  9990
2 48093  53.0533 169.5933 0001382 102.3580 257.7564 15.06400847115169
STARLINK-2412           
1 48094U 21027C   23120.46684239  .00005870  00000+0  41281-3 0  9995
2 48094  53.0533 179.3127 0001648  93.1048 267.0130 15.06385340115034
STARLINK-2414           
1 48095U 21027D   23120.47421083 -.00001002  00000+0 -48428-4 0  9999
2 48095  53.0541 179.2851 0001422  98.7090 261.4060 15.06388710115040
STARLINK-2417           
1 48096U 21027E   23120.38202702 -.00014838  00000+0 -97984-3 0  9996
2 48096  53.0535 179.6971 0001379  82.8657 277.2488 15.06380591115010
STARLINK-2418           
1 48097U 21027F   23120.42812842 -.00001113  00000+0 -55837-4 0  9998
2 48097  53.0526 159.4868 0001445  99.3919 260.7233 15.06389560115302
STARLINK-2421           
1 48098U 21027G   23120.47145535  .00008767  00000+0  60685-3 0  9998
2 48098  53.0536 169.2975 0001332  95.9443 264.1698 15.06391224115168
STARLINK-2428           
1 48099U 21027H   23120.39311833  .00000073  00000+0  23770-4 0  9993
2 48099  53.0536 179.6421 0001074  82.9294 277.1817 15.06399532115014
STARLINK-2430           
1 48100U 21027J   23120.42077747  .00002277  00000+0  17173-3 0  9990
2 48100  53.0529 159.5248 0001441 101.4483 258.6668 15.06399657114901
STARLINK-2436           
1 48101U 21027K   23120.40416616  .00006570  00000+0  45963-3 0  9999
2 48101  53.0524 169.5988 0001217  98.2013 261.9114 15.06393312115166
STARLINK-2437           
1 48102U 21027L   23120.51291126  .00003474  00000+0  25206-3 0  9997
2 48102  53.0536 159.1118 0001509  66.1262 293.9885 15.06395957115318
STARLINK-2438           
1 48103U 21027M   23120.39082561  .00016437  00000+0  92120-3 0  9997
2 48103  53.0524 157.6036 0006218 356.2080   3.8864 15.13523517115320
STARLINK-2439           
1 48104U 21027N   23120.53272305  .00001806  00000+0  14009-3 0  9995
2 48104  53.0544 164.0209 0001080  94.6868 265.4245 15.06393679114858
STARLINK-2440           
1 48105U 21027P   23120.44011683  .00000327  00000+0  40838-4 0  9993
2 48105  53.0532 109.4346 0001735  79.6586 280.4599 15.06402660116007
STARLINK-2442           
1 48106U 21027Q   23120.42443375 -.00005330  00000+0 -33932-3 0  9996
2 48106  53.0532 159.5141 0000987  90.2811 269.8291 15.06387974115307
STARLINK-2443           
1 48107U 21027R   23120.43920888  .00003208  00000+0  23415-3 0  9992
2 48107  53.0533 159.4353 0001804  76.2555 283.8634 15.06401474115300
STARLINK-2444           
1 48108U 21027S   23120.41248790  .00003825  00000+0  27551-3 0  9996
2 48108  53.0543 169.5609 0001311 106.5379 253.5754 15.06401323115155
STARLINK-2445           
1 48109U 21027T   23120.55900003  .00003009  00000+0  22087-3 0  9997
2 48109  53.0532 178.8975 0001743  97.5926 262.5261 15.06395998115040
STARLINK-2447           
1 48110U 21027U   23120.40142465  .00006347  00000+0  44453-3 0  9992
2 48110  53.0528 169.6106 0001248  99.8381 260.2749 15.06406167115161
STARLINK-2448           
1 48111U 21027V   23120.46039550  .00009756  00000+0  67293-3 0  9993
2 48111  53.0521 169.3120 0001340  89.6386 270.4757 15.06399993115174
STARLINK-2449           
1 48112U 21027W   23120.65254631  .00001126  00000+0  94484-4 0  9990
2 48112  53.0530 183.6437 0001075  98.2219 261.8891 15.06391644114583
STARLINK-2450           
1 48113U 21027X   23120.45576275 -.00004087  00000+0 -25566-3 0  9995
2 48113  53.0541 179.3594 0001641  96.6316 263.4860 15.06392134115019
STARLINK-2451           
1 48114U 21027Y   23120.54930603  .00014421  00000+0  98453-3 0  9991
2 48114  53.0536 173.9496 0001484  79.9850 280.1306 15.06420296115110
STARLINK-2452           
1 48115U 21027Z   23120.64375401  .00008953  00000+0  61916-3 0  9999
2 48115  53.0531 168.5206 0001500  89.4163 270.6997 15.06401553114795
STARLINK-2454           
1 48116U 21027AA  23120.45210406  .00006920  00000+0  48290-3 0  9994
2 48116  53.0528 179.3837 0000819  80.1694 279.9387 15.06408599115020
STARLINK-2455           
1 48117U 21027AB  23120.42350714  .00003968  00000+0  28524-3 0  9996
2 48117  53.0519 159.4996 0001350  83.6536 276.4606 15.06388438115306
STARLINK-2458           
1 48118U 21027AC  23120.36915911 -.00001034  00000+0 -50513-4 0  9994
2 48118  53.0529 159.7496 0001507  80.7258 279.3902 15.06393971115296
STARLINK-2459           
1 48119U 21027AD  23120.43089254  .00005153  00000+0  36462-3 0  9995
2 48119  53.0521 159.4646 0001430  85.1561 274.9592 15.06394719115291
STARLINK-2460           
1 48120U 21027AE  23120.43736325  .00010148  00000+0  69905-3 0  9993
2 48120  53.0529 179.4436 0001339  97.8205 262.2936 15.06407685115034
STARLINK-2462           
1 48121U 21027AF  23120.54148279  .00006061  00000+0  42542-3 0  9998
2 48121  53.0525 168.9791 0001341  78.0480 282.0660 15.06399865115176
STARLINK-2463           
1 48122U 21027AG  23120.34106686  .00003234  00000+0  23588-3 0  9991
2 48122  53.0539 164.8554 0001225 100.1507 259.9620 15.06402974115223
STARLINK-2464           
1 48123U 21027AH  23120.48341393  .00018246  00000+0  12410-2 0  9993
2 48123  53.0522 159.2404 0001744  85.8996 274.2192 15.06388704115313
STARLINK-2465           
1 48124U 21027AJ  23120.54885282  .00004104  00000+0  29440-3 0  9991
2 48124  53.0532 168.9499 0001108 103.4073 256.7039 15.06380437114783
STARLINK-2466           
1 48125U 21027AK  23120.43002609  .00017465  00000+0  11885-2 0  9991
2 48125  53.0524 179.7180 0001320  84.0966 276.0173 15.06399081115020
STARLINK-2467           
1 48126U 21027AL  23120.38389817  .00000591  00000+0  58562-4 0  9992
2 48126  53.0525 159.6842 0001462  76.1388 283.9764 15.06399221115301
STARLINK-2468           
1 48127U 21027AM  23120.57370031 -.00006488  00000+0 -41732-3 0  9995
2 48127  53.0521 178.8380 0001176 113.2168 246.8945 15.06375442115048
STARLINK-2469           
1 48128U 21027AN  23120.48803663  .00000477  00000+0  50900-4 0  9996
2 48128  53.0525 109.3028 0001721  87.6807 272.4379 15.06400968116006
STARLINK-2471           
1 48129U 21027AP  23120.56636373  .00011030  00000+0  75834-3 0  9997
2 48129  53.0542 178.8739 0001254  84.8769 275.2363 15.06393337115041
STARLINK-2472           
1 48130U 21027AQ  23120.55574986  .00010007  00000+0  68964-3 0  9998
2 48130  53.0527 183.9122 0001400  95.5051 264.6098 15.06406455114979
STARLINK-2473           
1 48131U 21027AR  23120.50922245  .00003614  00000+0  26143-3 0  9998
2 48131  53.0531 159.1261 0001463  85.3840 274.7316 15.06394175115315
